NORAD_CAT_ID,OBJECT_NAME,OBJECT_TYPE,EPOCH,MEAN_MOTION,ECCENTRICITY,INCLINATION,RA_OF_ASC_NODE,ARG_OF_PERICENTER,MEAN_ANOMALY,BSTAR,MEAN_MOTION_DOT,MEAN_MOTION_DDOT,TLE_LINE0,TLE_LINE1,TLE_LINE2,SEMIMAJOR_AXIS,PERIOD,APOGEE,PERIGEE,DECAYED
56456.0,STARLINK-5995,PAYLOAD,2023-09-12 11:26:43,14.9833086,0.0003362,69.9987,276.9428,268.7646,91.3128,2.4741e-05,2.02e-06,0.0,0 STARLINK-5995,1 56456U 23064J   23255.47689420  .00000202  00000-0  24741-4 0  9994,2 56456  69.9987 276.9428 0003362 268.7646  91.3128 14.98330860 19058,6950.19,96.107,574.392,569.719,0.0
56456.0,STARLINK-5995,PAYLOAD,2023-09-13 01:51:56,14.98330107,0.0003438,69.9986,275.4279,269.9199,90.1566,5.6029e-05,5.76e-06,0.0,0 STARLINK-5995,1 56456U 23064J   23256.07773282  .00000576  00000-0  56029-4 0  9999,2 56456  69.9986 275.4279 0003438 269.9199  90.1566 14.98330107 19502,6950.193,96.107,574.447,569.668,0.0
56456.0,STARLINK-5995,PAYLOAD,2023-09-13 11:28:44,14.98332728,0.0003348,69.9994,274.4187,268.6335,91.444,5.0745e-05,5.13e-06,0.0,0 STARLINK-5995,1 56456U 23064J   23256.47829080  .00000513  00000-0  50745-4 0  9991,2 56456  69.9994 274.4187 0003348 268.6335  91.4440 14.98332728 19209,6950.184,96.107,574.376,569.723,0.0
56456.0,STARLINK-5995,PAYLOAD,2023-09-14 01:53:57,14.98328857,0.0003216,69.9996,272.9038,267.6466,92.4325,-6.3597e-06,-1.69e-06,0.0,0 STARLINK-5995,1 56456U 23064J   23257.07913450 -.00000169  00000-0 -63597-5 0  9992,2 56456  69.9996 272.9038 0003216 267.6466  92.4325 14.98328857 19657,6950.196,96.107,574.297,569.826,0.0
56456.0,STARLINK-5995,PAYLOAD,2023-09-14 11:30:45,14.983256,0.0003371,69.9999,271.8934,274.0388,86.0385,-1.6494e-05,-2.9e-06,0.0,0 STARLINK-5995,1 56456U 23064J   23257.47969760 -.00000290  00000-0 -16494-4 0  9999,2 56456  69.9999 271.8934 0003371 274.0388  86.0385 14.98325600 19355,6950.206,96.107,574.414,569.729,0.0
56456.0,STARLINK-5995,PAYLOAD,2023-09-14 17:55:17,14.98334075,0.0003195,70.0,271.2205,270.3434,89.7359,-0.00011733,-1.493e-05,0.0,0 STARLINK-5995,1 56456U 23064J   23257.74673473 -.00001493  00000-0 -11733-3 0  9998,2 56456  70.0000 271.2205 0003195 270.3434  89.7359 14.98334075 19392,6950.18,96.107,574.266,569.825,0.0
56456.0,STARLINK-5995,PAYLOAD,2023-09-15 03:32:06,14.98347068,0.0003047,69.9995,270.2104,264.0664,96.0148,-0.0003171,-3.876e-05,0.0,0 STARLINK-5995,1 56456U 23064J   23258.14729327 -.00003876  00000-0 -31710-3 0  9997,2 56456  69.9995 270.2104 0003047 264.0664  96.0148 14.98347068 19810,6950.14,96.106,574.123,569.887,0.0
56456.0,STARLINK-5995,PAYLOAD,2023-09-15 11:32:46,14.98328635,0.0003058,70.0003,269.369,265.6689,94.4121,-3.3791e-05,-4.96e-06,0.0,0 STARLINK-5995,1 56456U 23064J   23258.48109594 -.00000496  00000-0 -33791-4 0  9999,2 56456  70.0003 269.3690 0003058 265.6689  94.4121 14.98328635 19506,6950.197,96.107,574.187,569.937,0.0
56456.0,STARLINK-5995,PAYLOAD,2023-09-15 17:57:18,14.98328225,0.0002944,70.0004,268.696,268.3595,91.7227,8.5767e-06,9e-08,0.0,0 STARLINK-5995,1 56456U 23064J   23258.74813601  .00000009  00000-0  85767-5 0  9998,2 56456  70.0004 268.6960 0002944 268.3595  91.7227 14.98328225 19904,6950.198,96.107,574.11,570.017,0.0
56456.0,STARLINK-5995,PAYLOAD,2023-09-16 09:58:39,14.98330453,0.0003383,69.9999,267.0127,269.2735,90.8036,6.1588e-05,6.42e-06,0.0,0 STARLINK-5995,1 56456U 23064J   23259.41573106  .00000642  00000-0  61588-4 0  9993,2 56456  69.9999 267.0127 0003383 269.2735  90.8036 14.98330453 19641,6950.191,96.107,574.408,569.705,0.0
56456.0,STARLINK-5995,PAYLOAD,2023-09-16 17:59:19,14.9832675,0.0003257,70.0002,266.1707,271.584,88.4946,2.418e-05,1.95e-06,0.0,0 STARLINK-5995,1 56456U 23064J   23259.74953489  .00000195  00000-0  24180-4 0  9995,2 56456  70.0002 266.1707 0003257 271.5840  88.4946 14.98326750 20051,6950.203,96.107,574.332,569.804,0.0
56456.0,STARLINK-5995,PAYLOAD,2023-09-17 10:00:40,14.98327279,0.0003466,69.9998,264.4875,270.0545,90.0217,1.246e-05,5.6e-07,0.0,0 STARLINK-5995,1 56456U 23064J   23260.41713488  .00000056  00000-0  12460-4 0  9998,2 56456  69.9998 264.4875 0003466 270.0545  90.0217 14.98327279 19793,6950.201,96.107,574.475,569.657,0.0
56456.0,STARLINK-5995,PAYLOAD,2023-09-17 18:01:20,14.98325768,0.0003453,69.9997,263.6458,269.92,90.1563,5.7071e-05,5.88e-06,0.0,0 STARLINK-5995,1 56456U 23064J   23260.75093487  .00000588  00000-0  57071-4 0  9992,2 56456  69.9997 263.6458 0003453 269.9200  90.1563 14.98325768 20205,6950.206,96.107,574.471,569.671,0.0
56456.0,STARLINK-5995,PAYLOAD,2023-09-18 10:02:41,14.98333031,0.0003485,69.9998,261.9625,269.9973,90.0786,-3.4471e-06,-1.34e-06,0.0,0 STARLINK-5995,1 56456U 23064J   23261.41853103 -.00000134  00000-0 -34471-5 0  9994,2 56456  69.9998 261.9625 0003485 269.9973  90.0786 14.98333031 19942,6950.184,96.107,574.471,569.626,0.0
56456.0,STARLINK-5995,PAYLOAD,2023-09-19 10:04:41,14.98332766,0.0003437,69.9998,259.4375,269.9316,90.145,6.307e-05,6.6e-06,0.0,0 STARLINK-5995,1 56456U 23064J   23262.41992860  .00000660  00000-0  63070-4 0  9997,2 56456  69.9998 259.4375 0003437 269.9316  90.1450 14.98332766 20455,6950.184,96.107,574.438,569.661,0.0
56456.0,STARLINK-5995,PAYLOAD,2023-09-20 10:06:43,14.98330094,0.0003288,70.0002,256.9133,268.5889,91.4893,-2.9831e-06,-1.29e-06,0.0,0 STARLINK-5995,1 56456U 23064J   23263.42133155 -.00000129  00000-0 -29831-5 0  9993,2 56456  70.0002 256.9133 0003288 268.5889  91.4893 14.98330094 20246,6950.193,96.107,574.343,569.772,0.0
56456.0,STARLINK-5995,PAYLOAD,2023-09-21 10:08:44,14.98330514,0.0002884,70.0008,254.3898,249.1007,110.9843,-0.00012273,-1.557e-05,0.0,0 STARLINK-5995,1 56456U 23064J   23264.42273449 -.00001557  00000-0 -12273-3 0  9991,2 56456  70.0008 254.3898 0002884 249.1007 110.9843 14.98330514 20755,6950.191,96.107,574.061,570.052,0.0
56456.0,STARLINK-5995,PAYLOAD,2023-09-21 16:33:16,14.98335376,0.0003044,70.0012,253.715,259.5008,100.5808,-0.00015312,-1.92e-05,0.0,0 STARLINK-5995,1 56456U 23064J   23264.68977311 -.00001920  00000-0 -15312-3 0  9999,2 56456  70.0012 253.7150 0003044 259.5008 100.5808 14.98335376 20431,6950.176,96.107,574.157,569.926,0.0
56456.0,STARLINK-5995,PAYLOAD,2023-09-22 05:22:20,14.98333717,0.0002899,70.0016,252.3693,265.368,94.7148,0.0001194,1.332e-05,0.0,0 STARLINK-5995,1 56456U 23064J   23265.22384728  .00001332  00000-0  11940-3 0  9992,2 56456  70.0016 252.3693 0002899 265.3680  94.7148 14.98333717 20876,6950.181,96.107,574.061,570.032,0.0
56456.0,STARLINK-5995,PAYLOAD,2023-09-22 08:34:36,14.98331243,0.0003086,70.0001,252.0311,261.8418,98.2391,6.9802e-05,7.4e-06,0.0,0 STARLINK-5995,1 56456U 23064J   23265.35736961  .00000740  00000-0  69802-4 0  9999,2 56456  70.0001 252.0311 0003086 261.8418  98.2391 14.98331243 20537,6950.189,96.107,574.199,569.909,0.0
56456.0,STARLINK-5995,PAYLOAD,2023-09-22 16:35:17,14.98327192,0.0003222,70.0003,251.1903,266.6654,93.4137,9.4109e-05,1.03e-05,0.0,0 STARLINK-5995,1 56456U 23064J   23265.69117168  .00001030  00000-0  94109-4 0  9999,2 56456  70.0003 251.1903 0003222 266.6654  93.4137 14.98327192 20941,6950.202,96.107,574.306,569.827,0.0
56456.0,STARLINK-5995,PAYLOAD,2023-09-23 08:36:37,14.98328751,0.0003214,70.0,249.5062,266.4997,93.5794,0.00012535,1.403e-05,0.0,0 STARLINK-5995,1 56456U 23064J   23266.35876921  .00001403  00000-0  12535-3 0  9998,2 56456  70.0000 249.5062 0003214 266.4997  93.5794 14.98328751 20687,6950.197,96.107,574.296,569.828,0.0
56456.0,STARLINK-5995,PAYLOAD,2023-09-23 16:37:18,14.98331441,0.0003326,70.0001,248.6648,269.4909,90.5869,2.9252e-05,2.56e-06,0.0,0 STARLINK-5995,1 56456U 23064J   23266.69256950  .00000256  00000-0  29252-4 0  9999,2 56456  70.0001 248.6648 0003326 269.4909  90.5869 14.98331441 21094,6950.188,96.107,574.365,569.742,0.0
56456.0,STARLINK-5995,PAYLOAD,2023-09-24 08:38:38,14.98335985,0.0003303,70.0002,246.9818,269.7834,90.2946,2.7281e-05,2.33e-06,0.0,0 STARLINK-5995,1 56456U 23064J   23267.36016570  .00000233  00000-0  27281-4 0  9991,2 56456  70.0002 246.9818 0003303 269.7834  90.2946 14.98335985 20831,6950.174,96.107,574.335,569.744,0.0
56456.0,STARLINK-5995,PAYLOAD,2023-09-25 02:16:07,14.98328256,0.0003242,70.0004,245.1301,269.4998,90.579,-2.4086e-05,-3.8e-06,0.0,0 STARLINK-5995,1 56456U 23064J   23268.09453102 -.00000380  00000-0 -24086-4 0  9993,2 56456  70.0004 245.1301 0003242 269.4998  90.5790 14.98328256 21307,6950.198,96.107,574.317,569.81,0.0
56456.0,STARLINK-5995,PAYLOAD,2023-09-25 08:40:39,14.98334075,0.0003125,70.0006,244.457,266.2463,93.8339,3.4994e-05,3.25e-06,0.0,0 STARLINK-5995,1 56456U 23064J   23268.36156550  .00000325  00000-0  34994-4 0  9996,2 56456  70.0006 244.4570 0003125 266.2463  93.8339 14.98334075 21346,6950.18,96.107,574.217,569.873,0.0
56456.0,STARLINK-5995,PAYLOAD,2023-09-26 02:18:09,14.98290303,0.0003174,70.0012,242.6071,264.3666,95.7131,0.00056886,6.694e-05,0.0,0 STARLINK-5995,1 56456U 23064J   23269.09594096  .00006694  00000-0  56886-3 0  9996,2 56456  70.0012 242.6071 0003174 264.3666  95.7131 14.98290303 21455,6950.316,96.11,574.387,569.975,0.0
56456.0,STARLINK-5995,PAYLOAD,2023-09-26 07:06:32,14.98326206,0.0002887,70.0012,242.1024,264.2446,95.8384,-3.5073e-05,-5.11e-06,0.0,0 STARLINK-5995,1 56456U 23064J   23269.29621331 -.00000511  00000-0 -35073-4 0  9991,2 56456  70.0012 242.1024 0002887 264.2446  95.8384 14.98326206 21489,6950.205,96.107,574.076,570.063,0.0
56456.0,STARLINK-5995,PAYLOAD,2023-09-27 02:20:09,14.98330684,0.000287,70.0011,240.0825,264.4839,95.5993,1.7786e-05,1.19e-06,0.0,0 STARLINK-5995,1 56456U 23064J   23270.09732929  .00000119  00000-0  17786-4 0  9990,2 56456  70.0011 240.0825 0002870 264.4839  95.5993 14.98330684 21606,6950.191,96.107,574.05,570.061,0.0
56456.0,STARLINK-5995,PAYLOAD,2023-09-27 07:08:33,14.98333485,0.0002826,70.0011,239.5778,263.5391,96.5446,4.9242e-05,4.95e-06,0.0,0 STARLINK-5995,1 56456U 23064J   23270.29760639  .00000495  00000-0  49242-4 0  9990,2 56456  70.0011 239.5778 0002826 263.5391  96.5446 14.98333485 21279,6950.182,96.107,574.011,570.083,0.0
